{
  "type": "FeatureCollection",
  "features": [
    {
      "type": "Feature",
      "properties": {
        "norad_id": 38122,
        "name": "FENGYUN 1C DEB",
        "group": "fengyun-1c-debris",
        "lat": 3.3071263094927446,
        "lon": 159.97003249490183,
        "alt_km": 592.8633878426717,
        "timestamp": "2025-12-02T19:35:50.845718+00:00",
        "meta_object_name": "FENGYUN 1C DEB",
        "meta_object_id": "1999-025EPT",
        "meta_epoch": "2025-12-01T11:08:56.211936",
        "meta_mean_motion": 14.42584925,
        "meta_eccentricity": 0.02274427,
        "meta_inclination": 98.3168,
        "meta_ra_of_asc_node": 338.1659,
        "meta_arg_of_pericenter": 191.0164,
        "meta_mean_anomaly": 168.5999,
        "meta_ephemeris_type": 0,
        "meta_classification_type": "U",
        "meta_norad_cat_id": 38122,
        "meta_element_set_no": 999,
        "meta_rev_at_epoch": 67576,
        "meta_bstar": 0.00049183009,
        "meta_mean_motion_dot": 2.179e-05,
        "meta_mean_motion_ddot": 0,
        "tle_line1": "1 38122U 99025EPT 25335.46453949  .00002179  00000+0  49183-3 0  9999",
        "tle_line2": "2 38122  98.3168 338.1659 0227442 191.0164 168.5999 14.42584925675763"
      },
      "geometry": {
        "type": "Point",
        "coordinates": [
          159.97003249490183,
          3.3071263094927446
        ]
      }
    },
    {
      "type": "Feature",
      "properties": {
        "norad_id": 38124,
        "name": "FENGYUN 1C DEB",
        "group": "fengyun-1c-debris",
        "lat": 41.01382515418826,
        "lon": 118.48209911064416,
        "alt_km": 1361.8751786594185,
        "timestamp": "2025-12-02T19:35:50.845729+00:00",
        "meta_object_name": "FENGYUN 1C DEB",
        "meta_object_id": "1999-025EPV",
        "meta_epoch": "2025-11-17T02:51:17.993664",
        "meta_mean_motion": 13.40908773,
        "meta_eccentricity": 0.03570409,
        "meta_inclination": 97.805,
        "meta_ra_of_asc_node": 279.4801,
        "meta_arg_of_pericenter": 12.4947,
        "meta_mean_anomaly": 348.4759,
        "meta_ephemeris_type": 0,
        "meta_classification_type": "U",
        "meta_norad_cat_id": 38124,
        "meta_element_set_no": 999,
        "meta_rev_at_epoch": 54238,
        "meta_bstar": 0.00079426358,
        "meta_mean_motion_dot": 6.08e-06,
        "meta_mean_motion_ddot": 0,
        "tle_line1": "1 38124U 99025EPV 25321.11895826  .00000608  00000+0  79426-3 0  9990",
        "tle_line2": "2 38124  97.8050 279.4801 0357040  12.4947 348.4759 13.40908773542380"
      },
      "geometry": {
        "type": "Point",
        "coordinates": [
          118.48209911064416,
          41.01382515418826
        ]
      }
    },
    {
      "type": "Feature",
      "properties": {
        "norad_id": 38130,
        "name": "FENGYUN 1C DEB",
        "group": "fengyun-1c-debris",
        "lat": -16.145527540498904,
        "lon": 31.96522811646154,
        "alt_km": 981.1300989019173,
        "timestamp": "2025-12-02T19:35:50.845739+00:00",
        "meta_object_name": "FENGYUN 1C DEB",
        "meta_object_id": "1999-025EQB",
        "meta_epoch": "2025-11-28T09:19:02.490528",
        "meta_mean_motion": 13.7720595,
        "meta_eccentricity": 0.02085156,
        "meta_inclination": 98.6035,
        "meta_ra_of_asc_node": 25.4413,
        "meta_arg_of_pericenter": 263.5047,
        "meta_mean_anomaly": 94.2329,
        "meta_ephemeris_type": 0,
        "meta_classification_type": "U",
        "meta_norad_cat_id": 38130,
        "meta_element_set_no": 999,
        "meta_rev_at_epoch": 69085,
        "meta_bstar": 0.0016964005,
        "meta_mean_motion_dot": 1.933e-05,
        "meta_mean_motion_ddot": 0,
        "tle_line1": "1 38130U 99025EQB 25332.38822327  .00001933  00000+0  16964-2 0  9993",
        "tle_line2": "2 38130  98.6035  25.4413 0208515 263.5047  94.2329 13.77205950690851"
      },
      "geometry": {
        "type": "Point",
        "coordinates": [
          31.96522811646154,
          -16.145527540498904
        ]
      }
    },
    {
      "type": "Feature",
      "properties": {
        "norad_id": 38135,
        "name": "FENGYUN 1C DEB",
        "group": "fengyun-1c-debris",
        "lat": 76.33050346621884,
        "lon": -5.084610139235496,
        "alt_km": 649.8732865536613,
        "timestamp": "2025-12-02T19:35:50.845749+00:00",
        "meta_object_name": "FENGYUN 1C DEB",
        "meta_object_id": "1999-025EQG",
        "meta_epoch": "2025-12-01T23:00:54.921600",
        "meta_mean_motion": 14.25234724,
        "meta_eccentricity": 0.02234685,
        "meta_inclination": 98.6604,
        "meta_ra_of_asc_node": 32.8729,
        "meta_arg_of_pericenter": 102.7051,
        "meta_mean_anomaly": 259.9208,
        "meta_ephemeris_type": 0,
        "meta_classification_type": "U",
        "meta_norad_cat_id": 38135,
        "meta_element_set_no": 999,
        "meta_rev_at_epoch": 60887,
        "meta_bstar": 0.00054370055,
        "meta_mean_motion_dot": 1.614e-05,
        "meta_mean_motion_ddot": 0,
        "tle_line1": "1 38135U 99025EQG 25335.95896900  .00001614  00000+0  54370-3 0  9992",
        "tle_line2": "2 38135  98.6604  32.8729 0223468 102.7051 259.9208 14.25234724608875"
      },
      "geometry": {
        "type": "Point",
        "coordinates": [
          -5.084610139235496,
          76.33050346621884
        ]
      }
    },
    {
      "type": "Feature",
      "properties": {
        "norad_id": 38137,
        "name": "FENGYUN 1C DEB",
        "group": "fengyun-1c-debris",
        "lat": 25.45592901897884,
        "lon": 15.509321280659007,
        "alt_km": 860.4051583710343,
        "timestamp": "2025-12-02T19:35:50.845760+00:00",
        "meta_object_name": "FENGYUN 1C DEB",
        "meta_object_id": "1999-025EQJ",
        "meta_epoch": "2025-12-01T22:58:56.830944",
        "meta_mean_motion": 14.06144852,
        "meta_eccentricity": 0.00467475,
        "meta_inclination": 98.8664,
        "meta_ra_of_asc_node": 18.9297,
        "meta_arg_of_pericenter": 99.0728,
        "meta_mean_anomaly": 261.5734,
        "meta_ephemeris_type": 0,
        "meta_classification_type": "U",
        "meta_norad_cat_id": 38137,
        "meta_element_set_no": 999,
        "meta_rev_at_epoch": 63557,
        "meta_bstar": 0.00025939815,
        "meta_mean_motion_dot": 3.88e-06,
        "meta_mean_motion_ddot": 0,
        "tle_line1": "1 38137U 99025EQJ 25335.95760221  .00000388  00000+0  25940-3 0  9998",
        "tle_line2": "2 38137  98.8664  18.9297 0046747  99.0728 261.5734 14.06144852635573"
      },
      "geometry": {
        "type": "Point",
        "coordinates": [
          15.509321280659007,
          25.45592901897884
        ]
      }
    },
    {
      "type": "Feature",
      "properties": {
        "norad_id": 38143,
        "name": "FENGYUN 1C DEB",
        "group": "fengyun-1c-debris",
        "lat": -18.63079773229444,
        "lon": -150.29464193466325,
        "alt_km": 855.9289767064383,
        "timestamp": "2025-12-02T19:35:50.845770+00:00",
        "meta_object_name": "FENGYUN 1C DEB",
        "meta_object_id": "1999-025EQQ",
        "meta_epoch": "2025-11-30T10:14:32.518464",
        "meta_mean_motion": 14.04858447,
        "meta_eccentricity": 0.00553619,
        "meta_inclination": 99.0297,
        "meta_ra_of_asc_node": 30.4011,
        "meta_arg_of_pericenter": 255.2443,
        "meta_mean_anomaly": 104.2585,
        "meta_ephemeris_type": 0,
        "meta_classification_type": "U",
        "meta_norad_cat_id": 38143,
        "meta_element_set_no": 999,
        "meta_rev_at_epoch": 60110,
        "meta_bstar": 0.00066489823,
        "meta_mean_motion_dot": 1.037e-05,
        "meta_mean_motion_ddot": 0,
        "tle_line1": "1 38143U 99025EQQ 25334.42676526  .00001037  00000+0  66490-3 0  9997",
        "tle_line2": "2 38143  99.0297  30.4011 0055361 255.2443 104.2585 14.04858447601109"
      },
      "geometry": {
        "type": "Point",
        "coordinates": [
          -150.29464193466325,
          -18.63079773229444
        ]
      }
    },
    {
      "type": "Feature",
      "properties": {
        "norad_id": 38144,
        "name": "FENGYUN 1C DEB",
        "group": "fengyun-1c-debris",
        "lat": 33.7640773031488,
        "lon": 156.04578043430112,
        "alt_km": 1252.6569574687683,
        "timestamp": "2025-12-02T19:35:50.845780+00:00",
        "meta_object_name": "FENGYUN 1C DEB",
        "meta_object_id": "1999-025EQR",
        "meta_epoch": "2025-11-30T05:34:28.265376",
        "meta_mean_motion": 13.58961896,
        "meta_eccentricity": 0.02908675,
        "meta_inclination": 98.9697,
        "meta_ra_of_asc_node": 159.7393,
        "meta_arg_of_pericenter": 223.9628,
        "meta_mean_anomaly": 133.8043,
        "meta_ephemeris_type": 0,
        "meta_classification_type": "U",
        "meta_norad_cat_id": 38144,
        "meta_element_set_no": 999,
        "meta_rev_at_epoch": 60867,
        "meta_bstar": 0.0017584648,
        "meta_mean_motion_dot": 1.663e-05,
        "meta_mean_motion_ddot": 0,
        "tle_line1": "1 38144U 99025EQR 25334.23227159  .00001663  00000+0  17585-2 0  9996",
        "tle_line2": "2 38144  98.9697 159.7393 0290867 223.9628 133.8043 13.58961896608676"
      },
      "geometry": {
        "type": "Point",
        "coordinates": [
          156.04578043430112,
          33.7640773031488
        ]
      }
    }
  ]
}